OBJECT_NAME,OBJECT_ID,EPOCH,MEAN_MOTION,ECCENTRICITY,INCLINATION,RA_OF_ASC_NODE,ARG_OF_PERICENTER,MEAN_ANOMALY,EPHEMERIS_TYPE,CLASSIFICATION_TYPE,NORAD_CAT_ID,ELEMENT_SET_NO,REV_AT_EPOCH,BSTAR,MEAN_MOTION_DOT,MEAN_MOTION_DDOT
ONEWEB-0236,2021-045AG,2026-07-12T15:43:16.114368,13.15548119,.00021566,87.8984,254.1319,95.2359,264.9017,0,U,48797,999,24760,-.2810328E-3,-.93E-6,0
ONEWEB-0248,2021-045AH,2026-07-12T16:01:30.820512,13.15548836,.00024045,87.8996,254.1153,108.5777,251.5614,0,U,48798,999,24776,-.15477156E-3,-.45E-6,0
ONEWEB-0225,2021-045AJ,2026-07-13T03:30:36.216864,13.15548124,.00021937,87.8992,254.0270,113.2136,246.9226,0,U,48799,999,24783,.36726732E-3,.151E-5,0
ONEWEB-0215,2021-045AK,2026-07-12T15:50:06.189504,13.15549106,.00023979,87.9000,254.1074,111.9675,248.1710,0,U,48800,999,24764,-.31681021E-3,-.106E-5,0
ONEWEB-0216,2021-045AL,2026-07-12T16:03:48.119616,13.15547853,.00019535,87.8984,254.1212,98.0014,262.1338,0,U,48801,999,24765,-.1363235E-3,-.38E-6,0
ONEWEB-0239,2021-045AM,2026-07-12T16:10:38.950752,13.15548366,.00025205,87.8979,254.1228,114.2785,245.8609,0,U,48802,999,24769,-.21314403E-3,-.67E-6,0
ONEWEB-0249,2021-060A,2026-07-12T23:13:40.652832,13.16592294,.00021683,87.9078,223.6571,96.4459,263.6919,0,U,48967,999,24300,.69455293E-4,.39E-6,0
ONEWEB-0250,2021-060B,2026-07-12T23:11:50.821152,13.25835139,.00030889,87.9080,221.3297,88.1386,272.0104,0,U,48968,999,24363,.14332458E-3,.76E-6,0
ONEWEB-0252,2021-060D,2026-07-12T13:01:33.470400,13.16595354,.0001822,87.9080,223.7339,96.8380,263.2958,0,U,48970,999,24299,.27121E-3,.117E-5,0
ONEWEB-0253,2021-060E,2026-07-12T12:45:36.066816,13.16594919,.00021711,87.9079,223.7415,95.1739,264.9640,0,U,48971,999,24292,.38478852E-3,.16E-5,0
ONEWEB-0254,2021-060F,2026-07-12T12:59:17.177856,13.16593690,.0002263,87.9083,223.7375,98.0458,262.0930,0,U,48972,999,24292,.25752E-3,.111E-5,0
ONEWEB-0255,2021-060G,2026-07-12T13:54:00.109152,13.16593838,.0002156,87.9081,223.7362,99.0796,261.0578,0,U,48973,999,24300,-.10842E-3,-.29E-6,0
ONEWEB-0256,2021-060H,2026-07-12T12:42:09.385056,13.16592538,.00018555,87.9073,223.7496,92.1773,267.9571,0,U,48974,999,24296,.2654015E-3,.114E-5,0
ONEWEB-0257,2021-060J,2026-07-12T13:28:55.236288,13.16594160,.0002042,87.9084,223.7308,99.2915,260.8447,0,U,48975,999,24292,.13136E-3,.63E-6,0
ONEWEB-0258,2021-060K,2026-07-13T00:27:49.012128,13.16594103,.00021156,87.9080,223.6522,91.6248,268.5126,0,U,48976,999,24299,-.1426208E-4,.7E-7,0
ONEWEB-0259,2021-060L,2026-07-13T00:18:41.821056,13.16593920,.00022111,87.9082,223.6520,96.6490,263.4893,0,U,48977,999,24302,-.61200115E-4,-.11E-6,0
ONEWEB-0260,2021-060M,2026-07-12T13:09:31.218336,13.16595657,.0001666,87.9074,223.7449,93.4775,266.6547,0,U,48978,999,24294,.15758E-3,.73E-6,0
ONEWEB-0261,2021-060N,2026-07-12T12:26:13.870176,13.16593380,.00020253,87.9073,223.7523,104.2075,255.9281,0,U,48979,999,24299,.12811179E-3,.62E-6,0
ONEWEB-0262,2021-060P,2026-07-12T15:36:35.743680,13.16593755,.00023733,87.9084,223.7116,98.6751,261.4649,0,U,48980,999,24297,.10097811E-3,.51E-6,0
ONEWEB-0263,2021-060Q,2026-07-12T12:43:19.255872,13.16593735,.00021319,87.9081,223.7478,104.0670,256.0698,0,U,48981,999,24292,.24401046E-3,.106E-5,0
ONEWEB-0264,2021-060R,2026-07-12T13:36:52.526304,13.16592911,.0001947,87.9075,223.7426,97.2070,262.9282,0,U,48982,999,24293,-.41806E-3,-.147E-5,0
ONEWEB-0266,2021-060T,2026-07-12T14:07:40.008864,13.16595342,.0002102,87.9068,223.7313,92.9465,267.1906,0,U,48984,999,24292,.23518E-3,.103E-5,0
ONEWEB-0267,2021-060U,2026-07-12T23:30:49.138560,13.16593357,.00019781,87.9081,223.6488,101.1559,258.9794,0,U,48985,999,24298,-.59541362E-4,-.1E-6,0
ONEWEB-0268,2021-060V,2026-07-12T15:27:28.613952,13.16593120,.00020359,87.9085,223.7237,92.8467,267.2897,0,U,48986,999,24320,-.25645014E-3,-.85E-6,0
ONEWEB-0269,2021-060W,2026-07-12T15:00:07.059744,13.16593830,.00019575,87.9075,223.7291,86.9410,273.1944,0,U,48987,999,24297,.59322695E-4,.36E-6,0
ONEWEB-0270,2021-060X,2026-07-12T15:25:11.948160,13.16593830,.0002358,87.9086,223.7265,103.5357,256.6037,0,U,48988,999,24301,-.18897316E-4,.6E-7,0
ONEWEB-0271,2021-060Y,2026-07-13T00:14:08.316672,13.16594188,.00020961,87.9079,223.6435,100.9674,259.1693,0,U,48989,999,24306,.11163823E-3,.56E-6,0
ONEWEB-0272,2021-060Z,2026-07-12T13:49:26.259168,13.16595443,.0001809,87.9082,223.7391,97.7675,262.3661,0,U,48990,999,24295,-.54059E-4,-.8E-7,0
ONEWEB-0273,2021-060AA,2026-07-12T12:31:55.170048,13.16593773,.00021169,87.9078,223.7518,98.3617,261.7754,0,U,48991,999,24292,.39909821E-4,.28E-6,0
ONEWEB-0274,2021-060AB,2026-07-12T13:08:23.090208,13.16595214,.0001495,87.9073,223.7461,104.0757,256.0540,0,U,48992,999,24296,.30961E-4,.25E-6,0
