ONEWEB-0236             
1 48797U 21045AG  26193.65504762 -.00000093  00000+0 -28103-3 0  9993
2 48797  87.8984 254.1319 0002156  95.2359 264.9017 13.15548119247609
ONEWEB-0248             
1 48798U 21045AH  26193.66771783 -.00000045  00000+0 -15477-3 0  9991
2 48798  87.8996 254.1153 0002404 108.5777 251.5614 13.15548836247765
ONEWEB-0225             
1 48799U 21045AJ  26194.14625251  .00000151  00000+0  36727-3 0  9991
2 48799  87.8992 254.0270 0002193 113.2136 246.9226 13.15548124247833
ONEWEB-0215             
1 48800U 21045AK  26193.65979386 -.00000106  00000+0 -31681-3 0  9996
2 48800  87.9000 254.1074 0002397 111.9675 248.1710 13.15549106247641
ONEWEB-0216             
1 48801U 21045AL  26193.66930694 -.00000038  00000+0 -13632-3 0  9997
2 48801  87.8984 254.1212 0001953  98.0014 262.1338 13.15547853247655
ONEWEB-0239             
1 48802U 21045AM  26193.67406193 -.00000067  00000+0 -21314-3 0  9999
2 48802  87.8979 254.1228 0002520 114.2785 245.8609 13.15548366247697
ONEWEB-0249             
1 48967U 21060A   26193.96783163  .00000039  00000+0  69455-4 0  9991
2 48967  87.9078 223.6571 0002168  96.4459 263.6919 13.16592294243002
ONEWEB-0250             
1 48968U 21060B   26193.96656043  .00000076  00000+0  14332-3 0  9992
2 48968  87.9080 221.3297 0003088  88.1386 272.0104 13.25835139243632
ONEWEB-0252             
1 48970U 21060D   26193.54274850  .00000117  00000+0  27121-3 0  9997
2 48970  87.9080 223.7339 0001822  96.8380 263.2958 13.16595354242991
ONEWEB-0253             
1 48971U 21060E   26193.53166744  .00000160  00000+0  38479-3 0  9995
2 48971  87.9079 223.7415 0002171  95.1739 264.9640 13.16594919242928
ONEWEB-0254             
1 48972U 21060F   26193.54117104  .00000111  00000+0  25752-3 0  9999
2 48972  87.9083 223.7375 0002263  98.0458 262.0930 13.16593690242927
ONEWEB-0255             
1 48973U 21060G   26193.57916793 -.00000029  00000+0 -10842-3 0  9998
2 48973  87.9081 223.7362 0002156  99.0796 261.0578 13.16593838243000
ONEWEB-0256             
1 48974U 21060H   26193.52927529  .00000114  00000+0  26540-3 0  9998
2 48974  87.9073 223.7496 0001855  92.1773 267.9571 13.16592538242962
ONEWEB-0257             
1 48975U 21060J   26193.56175042  .00000063  00000+0  13136-3 0  9998
2 48975  87.9084 223.7308 0002042  99.2915 260.8447 13.16594160242925
ONEWEB-0258             
1 48976U 21060K   26194.01931727  .00000007  00000+0 -14262-4 0  9991
2 48976  87.9080 223.6522 0002115  91.6248 268.5126 13.16594103242998
ONEWEB-0259             
1 48977U 21060L   26194.01298404 -.00000011  00000+0 -61200-4 0  9990
2 48977  87.9082 223.6520 0002211  96.6490 263.4893 13.16593920243026
ONEWEB-0260             
1 48978U 21060M   26193.54827799  .00000073  00000+0  15758-3 0  9995
2 48978  87.9074 223.7449 0001666  93.4775 266.6547 13.16595657242943
ONEWEB-0261             
1 48979U 21060N   26193.51821609  .00000062  00000+0  12811-3 0  9992
2 48979  87.9073 223.7523 0002025 104.2075 255.9281 13.16593380242992
ONEWEB-0262             
1 48980U 21060P   26193.65041370  .00000051  00000+0  10098-3 0  9991
2 48980  87.9084 223.7116 0002373  98.6751 261.4649 13.16593755242971
ONEWEB-0263             
1 48981U 21060Q   26193.53008398  .00000106  00000+0  24401-3 0  9996
2 48981  87.9081 223.7478 0002131 104.0670 256.0698 13.16593735242921
ONEWEB-0264             
1 48982U 21060R   26193.56727461 -.00000147  00000+0 -41806-3 0  9994
2 48982  87.9075 223.7426 0001947  97.2070 262.9282 13.16592911242930
ONEWEB-0266             
1 48984U 21060T   26193.58865751  .00000103  00000+0  23518-3 0  9993
2 48984  87.9068 223.7313 0002102  92.9465 267.1906 13.16595342242923
ONEWEB-0267             
1 48985U 21060U   26193.97973540 -.00000010  00000+0 -59541-4 0  9998
2 48985  87.9081 223.6488 0001978 101.1559 258.9794 13.16593357242981
ONEWEB-0268             
1 48986U 21060V   26193.64408118 -.00000085  00000+0 -25645-3 0  9996
2 48986  87.9085 223.7237 0002035  92.8467 267.2897 13.16593120243209
ONEWEB-0269             
1 48987U 21060W   26193.62508171  .00000036  00000+0  59323-4 0  9990
2 48987  87.9075 223.7291 0001957  86.9410 273.1944 13.16593830242973
ONEWEB-0270             
1 48988U 21060X   26193.64249940  .00000006  00000+0 -18897-4 0  9998
2 48988  87.9086 223.7265 0002358 103.5357 256.6037 13.16593830243014
ONEWEB-0271             
1 48989U 21060Y   26194.00981848  .00000056  00000+0  11164-3 0  9993
2 48989  87.9079 223.6435 0002096 100.9674 259.1693 13.16594188243065
ONEWEB-0272             
1 48990U 21060Z   26193.57599837 -.00000008  00000+0 -54059-4 0  9999
2 48990  87.9082 223.7391 0001809  97.7675 262.3661 13.16595443242951
ONEWEB-0273             
1 48991U 21060AA  26193.52216632  .00000028  00000+0  39910-4 0  9993
2 48991  87.9078 223.7518 0002116  98.3617 261.7754 13.16593773242920
ONEWEB-0274             
1 48992U 21060AB  26193.54748947  .00000025  00000+0  30961-4 0  9999
2 48992  87.9073 223.7461 0001495 104.0757 256.0540 13.16595214242968
